NORAD_CAT_ID,OBJECT_NAME,OBJECT_TYPE,EPOCH,MEAN_MOTION,ECCENTRICITY,INCLINATION,RA_OF_ASC_NODE,ARG_OF_PERICENTER,MEAN_ANOMALY,BSTAR,MEAN_MOTION_DOT,MEAN_MOTION_DDOT,TLE_LINE0,TLE_LINE1,TLE_LINE2,SEMIMAJOR_AXIS,PERIOD,APOGEE,PERIGEE,DECAYED
54054.0,STARLINK-5163,PAYLOAD,2024-02-16 05:05:43,15.0884377,0.0001697,53.214,122.2487,85.3883,274.7303,0.00014178,1.969e-05,0.0,0 STARLINK-5163,1 54054U 22136D   24047.21231014  .00001969  00000-0  14178-3 0  9992,2 54054  53.2140 122.2487 0001697  85.3883 274.7303 15.08843770 73727,6917.869,95.437,540.908,538.56,0.0
54054.0,STARLINK-5163,PAYLOAD,2024-02-16 11:27:15,15.08851498,0.0001697,53.2158,121.0588,86.9092,273.2094,0.00023475,3.451e-05,0.0,0 STARLINK-5163,1 54054U 22136D   24047.47726560  .00003451  00000-0  23475-3 0  9993,2 54054  53.2158 121.0588 0001697  86.9092 273.2094 15.08851498 73282,6917.845,95.437,540.884,538.536,0.0
54054.0,STARLINK-5163,PAYLOAD,2024-02-16 14:38:01,15.08856352,0.0001771,53.2161,120.4638,92.0276,268.0919,0.00016148,2.284e-05,0.0,0 STARLINK-5163,1 54054U 22136D   24047.60974224  .00002284  00000-0  16148-3 0  9992,2 54054  53.2161 120.4638 0001771  92.0276 268.0919 15.08856352 73787,6917.83,95.437,540.921,538.47,0.0
54054.0,STARLINK-5163,PAYLOAD,2024-02-17 11:18:03,15.0884459,0.00017,53.2157,116.5983,83.2174,276.9012,0.00020023,2.9e-05,0.0,0 STARLINK-5163,1 54054U 22136D   24048.47087003  .00002900  00000-0  20023-3 0  9990,2 54054  53.2157 116.5983 0001700  83.2174 276.9012 15.08844590 73910,6917.866,95.437,540.907,538.555,0.0
54054.0,STARLINK-5163,PAYLOAD,2024-02-18 11:08:50,15.088497,0.0001592,53.2153,112.1409,86.1165,274.0009,0.00035399,5.352e-05,0.0,0 STARLINK-5163,1 54054U 22136D   24049.46446961  .00005352  00000-0  35399-3 0  9998,2 54054  53.2153 112.1409 0001592  86.1165 274.0009 15.08849700 73588,6917.851,95.437,540.817,538.614,0.0
54054.0,STARLINK-5163,PAYLOAD,2024-02-18 20:41:09,15.08845932,0.0001527,53.215,110.3569,83.3658,276.7508,0.00027755,4.133e-05,0.0,0 STARLINK-5163,1 54054U 22136D   24049.86191039  .00004133  00000-0  27755-3 0  9998,2 54054  53.2150 110.3569 0001527  83.3658 276.7508 15.08845932 73649,6917.862,95.437,540.784,538.671,0.0
54054.0,STARLINK-5163,PAYLOAD,2024-02-19 10:59:37,15.08834265,0.0001743,53.2173,107.6835,100.1186,260.0003,-1.5523e-05,-5.35e-06,0.0,0 STARLINK-5163,1 54054U 22136D   24050.45807559 -.00000535  00000-0 -15523-4 0  9991,2 54054  53.2173 107.6835 0001743 100.1186 260.0003 15.08834265 74210,6917.898,95.438,540.969,538.557,0.0
54054.0,STARLINK-5163,PAYLOAD,2024-02-19 20:31:56,15.08832721,0.0001729,53.2177,105.8994,98.4582,261.6606,1.812e-06,-2.59e-06,0.0,0 STARLINK-5163,1 54054U 22136D   24050.85551811 -.00000259  00000-0  18120-5 0  9991,2 54054  53.2177 105.8994 0001729  98.4582 261.6606 15.08832721 73796,6917.903,95.438,540.964,538.572,0.0
54054.0,STARLINK-5163,PAYLOAD,2024-02-20 12:25:47,15.08848205,0.0001873,53.2177,102.9254,105.7601,254.3598,3.1762e-05,2.17e-06,0.0,0 STARLINK-5163,1 54054U 22136D   24051.51791336  .00000217  00000-0  31762-4 0  9992,2 54054  53.2177 102.9254 0001873 105.7601 254.3598 15.08848205 73891,6917.855,95.437,541.016,538.425,0.0
54054.0,STARLINK-5163,PAYLOAD,2024-02-20 20:22:43,15.08844894,0.0001526,53.2167,101.4356,91.9625,268.1542,5.7032e-05,6.2e-06,0.0,0 STARLINK-5163,1 54054U 22136D   24051.84911427  .00000620  00000-0  57032-4 0  9999,2 54054  53.2167 101.4356 0001526  91.9625 268.1542 15.08844894 73942,6917.865,95.437,540.786,538.675,0.0
54054.0,STARLINK-5163,PAYLOAD,2024-02-21 10:41:11,15.08843054,0.0001493,53.2167,98.7588,87.2192,272.8971,0.00014557,2.03e-05,0.0,0 STARLINK-5163,1 54054U 22136D   24052.44527535  .00002030  00000-0  14557-3 0  9990,2 54054  53.2167  98.7588 0001493  87.2192 272.8971 15.08843054 74516,6917.871,95.437,540.769,538.703,0.0
54054.0,STARLINK-5163,PAYLOAD,2024-02-21 20:13:30,15.08840044,0.0001527,53.2169,96.9749,87.9011,272.2156,0.00011322,1.514e-05,0.0,0 STARLINK-5163,1 54054U 22136D   24052.84271724  .00001514  00000-0  11322-3 0  9993,2 54054  53.2169  96.9749 0001527  87.9011 272.2156 15.08840044 74090,6917.88,95.438,540.802,538.689,0.0
54054.0,STARLINK-5163,PAYLOAD,2024-02-22 02:35:03,15.08838283,0.0001569,53.2162,95.7869,88.7369,271.3802,8.491e-05,1.064e-05,0.0,0 STARLINK-5163,1 54054U 22136D   24053.10767946  .00001064  00000-0  84910-4 0  9993,2 54054  53.2162  95.7869 0001569  88.7369 271.3802 15.08838283 74612,6917.886,95.438,540.836,538.665,0.0
54054.0,STARLINK-5163,PAYLOAD,2024-02-22 12:07:22,15.08844405,0.0001479,53.2162,93.9992,87.8948,272.2213,5.021e-05,5.11e-06,0.0,0 STARLINK-5163,1 54054U 22136D   24053.50511620  .00000511  00000-0  50210-4 0  9995,2 54054  53.2162  93.9992 0001479  87.8948 272.2213 15.08844405 74194,6917.867,95.437,540.755,538.709,0.0
54054.0,STARLINK-5163,PAYLOAD,2024-02-22 20:04:18,15.08837681,0.0001426,53.2159,92.5108,92.09,268.0256,-1.69e-05,-5.57e-06,0.0,0 STARLINK-5163,1 54054U 22136D   24053.83632131 -.00000557  00000-0 -16900-4 0  9992,2 54054  53.2159  92.5108 0001426  92.0900 268.0256 15.08837681 74246,6917.887,95.438,540.739,538.766,0.0
54054.0,STARLINK-5163,PAYLOAD,2024-02-23 02:25:50,15.08834431,0.0001504,53.2153,91.3216,92.0951,268.0213,-4.3329e-06,-3.57e-06,0.0,0 STARLINK-5163,1 54054U 22136D   24054.10128409 -.00000357  00000-0 -43329-5 0  9995,2 54054  53.2153  91.3216 0001504  92.0951 268.0213 15.08834431 74760,6917.897,95.438,540.803,538.722,0.0
54054.0,STARLINK-5163,PAYLOAD,2024-02-23 08:47:23,15.08838517,0.0001438,53.2169,90.1345,88.914,271.2017,3.6184e-05,2.88e-06,0.0,0 STARLINK-5163,1 54054U 22136D   24054.36624062  .00000288  00000-0  36184-4 0  9990,2 54054  53.2169  90.1345 0001438  88.9140 271.2017 15.08838517 74326,6917.885,95.438,540.745,538.755,0.0
54054.0,STARLINK-5163,PAYLOAD,2024-02-23 19:55:04,15.0884246,0.000149,53.2156,88.0526,90.7341,269.3822,7.1529e-05,8.51e-06,0.0,0 STARLINK-5163,1 54054U 22136D   24054.82991737  .00000851  00000-0  71529-4 0  9995,2 54054  53.2156  88.0526 0001490  90.7341 269.3822 15.08842460 74875,6917.873,95.437,540.769,538.707,0.0
54054.0,STARLINK-5163,PAYLOAD,2024-02-24 08:38:09,15.0884439,0.0001454,53.216,85.6734,92.8062,267.3097,0.0001579,2.226e-05,0.0,0 STARLINK-5163,1 54054U 22136D   24055.35983526  .00002226  00000-0  15790-3 0  9996,2 54054  53.2160  85.6734 0001454  92.8062 267.3097 15.08844390 74479,6917.867,95.437,540.738,538.726,0.0
54054.0,STARLINK-5163,PAYLOAD,2024-02-25 05:18:12,15.08827555,0.0001541,53.2165,81.8079,96.226,263.8908,4.4871e-07,-2.81e-06,0.0,0 STARLINK-5163,1 54054U 22136D   24056.22097561 -.00000281  00000-0  44871-6 0  9993,2 54054  53.2165  81.8079 0001541  96.2260 263.8908 15.08827555 75083,6917.918,95.438,540.849,538.717,0.0
54054.0,STARLINK-5163,PAYLOAD,2024-02-25 08:28:58,15.08828341,0.0001614,53.217,81.2129,90.028,270.0898,1.1418e-05,-1.06e-06,0.0,0 STARLINK-5163,1 54054U 22136D   24056.35345652 -.00000106  00000-0  11418-4 0  9999,2 54054  53.2170  81.2129 0001614  90.0280 270.0898 15.08828341 74625,6917.916,95.438,540.898,538.664,0.0
54054.0,STARLINK-5163,PAYLOAD,2024-02-25 18:01:17,15.08835969,0.0001622,53.2174,79.4287,90.9525,269.1653,5.2543e-05,5.48e-06,0.0,0 STARLINK-5163,1 54054U 22136D   24056.75089295  .00000548  00000-0  52543-4 0  9994,2 54054  53.2174  79.4287 0001622  90.9525 269.1653 15.08835969 75165,6917.893,95.438,540.88,538.636,0.0
54054.0,STARLINK-5163,PAYLOAD,2024-02-26 01:58:12,15.08846509,0.0001534,53.216,77.9384,95.5035,264.6132,9.8789e-05,1.285e-05,0.0,0 STARLINK-5163,1 54054U 22136D   24057.08208549  .00001285  00000-0  98789-4 0  9997,2 54054  53.2160  77.9384 0001534  95.5035 264.6132 15.08846509 75210,6917.86,95.437,540.787,538.664,0.0
54054.0,STARLINK-5163,PAYLOAD,2024-02-26 06:44:21,15.08852833,0.0001553,53.2155,77.0505,90.2266,269.8904,0.00033262,5.011e-05,0.0,0 STARLINK-5163,1 54054U 22136D   24057.28080431  .00005011  00000-0  33262-3 0  9992,2 54054  53.2155  77.0505 0001553  90.2266 269.8904 15.08852833 74769,6917.841,95.437,540.781,538.632,0.0
54054.0,STARLINK-5163,PAYLOAD,2024-02-27 00:13:36,15.08846601,0.0001689,53.2161,73.7808,84.7554,275.3631,0.00024479,3.611e-05,0.0,0 STARLINK-5163,1 54054U 22136D   24058.00944739  .00003611  00000-0  24479-3 0  9997,2 54054  53.2161  73.7808 0001689  84.7554 275.3631 15.08846601 75354,6917.86,95.437,540.894,538.557,0.0
54054.0,STARLINK-5163,PAYLOAD,2024-02-27 08:10:32,15.08840141,0.0001666,53.2171,72.2939,93.4836,266.6346,0.00027575,4.103e-05,0.0,0 STARLINK-5163,1 54054U 22136D   24058.34064840  .00004103  00000-0  27575-3 0  9997,2 54054  53.2171  72.2939 0001666  93.4836 266.6346 15.08840141 74920,6917.88,95.438,540.897,538.592,0.0
54054.0,STARLINK-5163,PAYLOAD,2024-02-27 17:42:50,15.08843985,0.0001429,53.2154,70.5083,89.8171,270.2985,7.6105e-05,9.24e-06,0.0,0 STARLINK-5163,1 54054U 22136D   24058.73808444  .00000924  00000-0  76105-4 0  9997,2 54054  53.2154  70.5083 0001429  89.8171 270.2985 15.08843985 74985,6917.868,95.437,540.722,538.745,0.0
54054.0,STARLINK-5163,PAYLOAD,2024-02-28 00:04:23,15.08845797,0.0001822,53.219,69.3225,98.9429,261.1769,-1.4102e-05,-5.13e-06,0.0,0 STARLINK-5163,1 54054U 22136D   24059.00304907 -.00000513  00000-0 -14102-4 0  9998,2 54054  53.2190  69.3225 0001822  98.9429 261.1769 15.08845797 75504,6917.863,95.437,540.988,538.467,0.0
54054.0,STARLINK-5163,PAYLOAD,2024-02-28 09:36:42,15.08842008,0.0001746,53.2178,67.5363,81.0598,279.0592,-7.0134e-07,-2.99e-06,0.0,0 STARLINK-5163,1 54054U 22136D   24059.40049118 -.00000299  00000-0 -70134-6 0  9992,2 54054  53.2178  67.5363 0001746  81.0598 279.0592 15.08842008 75085,6917.874,95.437,540.947,538.531,0.0
54054.0,STARLINK-5163,PAYLOAD,2024-02-28 17:33:37,15.08840989,0.0001574,53.2172,66.0482,90.7691,269.3482,3.5743e-05,2.81e-06,0.0,0 STARLINK-5163,1 54054U 22136D   24059.73168950  .00000281  00000-0  35743-4 0  9998,2 54054  53.2172  66.0482 0001574  90.7691 269.3482 15.08840989 75137,6917.877,95.437,540.831,538.653,0.0
